{
  "type": "FeatureCollection",
  "features": [
    {
      "type": "Feature",
      "properties": {
        "norad_id": 66690,
        "name": "TRANSPORTER-15AA",
        "group": "last-30-days",
        "lat": 4.962869877002896,
        "lon": 71.25138415994661,
        "alt_km": 518.7941671462495,
        "timestamp": "2025-12-26T09:30:52.340989+00:00",
        "meta_object_name": "TRANSPORTER-15AA",
        "meta_object_id": "2025-276AA",
        "meta_epoch": "2025-12-26T03:09:38.261376",
        "meta_mean_motion": 15.17097621,
        "meta_eccentricity": 0.000369,
        "meta_inclination": 97.4389,
        "meta_ra_of_asc_node": 71.6416,
        "meta_arg_of_pericenter": 231.8633,
        "meta_mean_anomaly": 128.2268,
        "meta_ephemeris_type": 0,
        "meta_classification_type": "U",
        "meta_norad_cat_id": 66690,
        "meta_element_set_no": 999,
        "meta_rev_at_epoch": 415,
        "meta_bstar": 0.00033328,
        "meta_mean_motion_dot": 6.539e-05,
        "meta_mean_motion_ddot": 0,
        "tle_line1": "1 66690U 25276AA  25360.13169284  .00006539  00000+0  33328-3 0  9993",
        "tle_line2": "2 66690  97.4389  71.6416 0003690 231.8633 128.2268 15.17097621  4156"
      },
      "geometry": {
        "type": "Point",
        "coordinates": [
          71.25138415994661,
          4.962869877002896
        ]
      }
    },
    {
      "type": "Feature",
      "properties": {
        "norad_id": 66691,
        "name": "TRANSPORTER-15AB",
        "group": "last-30-days",
        "lat": 19.015891531944998,
        "lon": 69.33385491637364,
        "alt_km": 516.2728613071768,
        "timestamp": "2025-12-26T09:30:52.340999+00:00",
        "meta_object_name": "TRANSPORTER-15AB",
        "meta_object_id": "2025-276AB",
        "meta_epoch": "2025-12-26T03:05:57.948288",
        "meta_mean_motion": 15.17366768,
        "meta_eccentricity": 0.0003789,
        "meta_inclination": 97.4412,
        "meta_ra_of_asc_node": 71.653,
        "meta_arg_of_pericenter": 233.7026,
        "meta_mean_anomaly": 126.3858,
        "meta_ephemeris_type": 0,
        "meta_classification_type": "U",
        "meta_norad_cat_id": 66691,
        "meta_element_set_no": 999,
        "meta_rev_at_epoch": 415,
        "meta_bstar": 0.00056038,
        "meta_mean_motion_dot": 0.00011133,
        "meta_mean_motion_ddot": 0,
        "tle_line1": "1 66691U 25276AB  25360.12914292  .00011133  00000+0  56038-3 0  9999",
        "tle_line2": "2 66691  97.4412  71.6530 0003789 233.7026 126.3858 15.17366768  4152"
      },
      "geometry": {
        "type": "Point",
        "coordinates": [
          69.33385491637364,
          19.015891531944998
        ]
      }
    },
    {
      "type": "Feature",
      "properties": {
        "norad_id": 66692,
        "name": "TRANSPORTER-15AC",
        "group": "last-30-days",
        "lat": 37.05004792800818,
        "lon": 66.26431154381618,
        "alt_km": 512.0529668899962,
        "timestamp": "2025-12-26T09:30:52.341009+00:00",
        "meta_object_name": "TRANSPORTER-15AC",
        "meta_object_id": "2025-276AC",
        "meta_epoch": "2025-12-26T04:36:08.313696",
        "meta_mean_motion": 15.17447229,
        "meta_eccentricity": 0.000178,
        "meta_inclination": 97.4413,
        "meta_ra_of_asc_node": 71.7258,
        "meta_arg_of_pericenter": 246.4774,
        "meta_mean_anomaly": 113.6272,
        "meta_ephemeris_type": 0,
        "meta_classification_type": "U",
        "meta_norad_cat_id": 66692,
        "meta_element_set_no": 999,
        "meta_rev_at_epoch": 416,
        "meta_bstar": 0.00030394,
        "meta_mean_motion_dot": 6.017e-05,
        "meta_mean_motion_ddot": 0,
        "tle_line1": "1 66692U 25276AC  25360.19176289  .00006017  00000+0  30394-3 0  9995",
        "tle_line2": "2 66692  97.4413  71.7258 0001780 246.4774 113.6272 15.17447229  4164"
      },
      "geometry": {
        "type": "Point",
        "coordinates": [
          66.26431154381618,
          37.05004792800818
        ]
      }
    },
    {
      "type": "Feature",
      "properties": {
        "norad_id": 66693,
        "name": "TRANSPORTER-15AD",
        "group": "last-30-days",
        "lat": 39.617514211977074,
        "lon": 65.69951566890673,
        "alt_km": 511.49850989974857,
        "timestamp": "2025-12-26T09:30:52.341021+00:00",
        "meta_object_name": "TRANSPORTER-15AD",
        "meta_object_id": "2025-276AD",
        "meta_epoch": "2025-12-26T04:35:30.218208",
        "meta_mean_motion": 15.17711581,
        "meta_eccentricity": 0.0003229,
        "meta_inclination": 97.4367,
        "meta_ra_of_asc_node": 71.7053,
        "meta_arg_of_pericenter": 259.4473,
        "meta_mean_anomaly": 100.6397,
        "meta_ephemeris_type": 0,
        "meta_classification_type": "U",
        "meta_norad_cat_id": 66693,
        "meta_element_set_no": 999,
        "meta_rev_at_epoch": 416,
        "meta_bstar": 0.00073291,
        "meta_mean_motion_dot": 0.00014732,
        "meta_mean_motion_ddot": 0,
        "tle_line1": "1 66693U 25276AD  25360.19132197  .00014732  00000+0  73291-3 0  9992",
        "tle_line2": "2 66693  97.4367  71.7053 0003229 259.4473 100.6397 15.17711581  4165"
      },
      "geometry": {
        "type": "Point",
        "coordinates": [
          65.69951566890673,
          39.617514211977074
        ]
      }
    },
    {
      "type": "Feature",
      "properties": {
        "norad_id": 66694,
        "name": "YAM-9",
        "group": "last-30-days",
        "lat": 48.32262631244501,
        "lon": 63.48449579382849,
        "alt_km": 509.7449302828827,
        "timestamp": "2025-12-26T09:30:52.341031+00:00",
        "meta_object_name": "YAM-9",
        "meta_object_id": "2025-276AE",
        "meta_epoch": "2025-12-26T04:33:09.290304",
        "meta_mean_motion": 15.17618841,
        "meta_eccentricity": 0.0001457,
        "meta_inclination": 97.4414,
        "meta_ra_of_asc_node": 71.7237,
        "meta_arg_of_pericenter": 235.5203,
        "meta_mean_anomaly": 124.5893,
        "meta_ephemeris_type": 0,
        "meta_classification_type": "U",
        "meta_norad_cat_id": 66694,
        "meta_element_set_no": 999,
        "meta_rev_at_epoch": 416,
        "meta_bstar": 0.00051975,
        "meta_mean_motion_dot": 0.00010393,
        "meta_mean_motion_ddot": 0,
        "tle_line1": "1 66694U 25276AE  25360.18969086  .00010393  00000+0  51975-3 0  9991",
        "tle_line2": "2 66694  97.4414  71.7237 0001457 235.5203 124.5893 15.17618841  4161"
      },
      "geometry": {
        "type": "Point",
        "coordinates": [
          63.48449579382849,
          48.32262631244501
        ]
      }
    },
    {
      "type": "Feature",
      "properties": {
        "norad_id": 66695,
        "name": "IRIDE FM1",
        "group": "last-30-days",
        "lat": 63.5463654030737,
        "lon": -92.82447141199764,
        "alt_km": 503.735496142368,
        "timestamp": "2025-12-26T09:30:52.341043+00:00",
        "meta_object_name": "IRIDE FM1",
        "meta_object_id": "2025-276AF",
        "meta_epoch": "2025-12-26T00:00:02.000160",
        "meta_mean_motion": 15.1829138,
        "meta_eccentricity": 0.0001634,
        "meta_inclination": 97.4391,
        "meta_ra_of_asc_node": 71.5613,
        "meta_arg_of_pericenter": 141.9613,
        "meta_mean_anomaly": 328.0688,
        "meta_ephemeris_type": 0,
        "meta_classification_type": "U",
        "meta_norad_cat_id": 66695,
        "meta_element_set_no": 999,
        "meta_rev_at_epoch": 130,
        "meta_bstar": 0.001607,
        "meta_mean_motion_dot": 0.00033003,
        "meta_mean_motion_ddot": 0,
        "tle_line1": "1 66695U 25276AF  25360.00002315  .00033003  00000+0  16070-2 0  9995",
        "tle_line2": "2 66695  97.4391  71.5613 0001634 141.9613 328.0688 15.18291380  1306"
      },
      "geometry": {
        "type": "Point",
        "coordinates": [
          -92.82447141199764,
          63.5463654030737
        ]
      }
    },
    {
      "type": "Feature",
      "properties": {
        "norad_id": 66696,
        "name": "IRIDE FM2",
        "group": "last-30-days",
        "lat": 33.25551325602431,
        "lon": 66.99548592627418,
        "alt_km": 512.9334906515569,
        "timestamp": "2025-12-26T09:30:52.341055+00:00",
        "meta_object_name": "IRIDE FM2",
        "meta_object_id": "2025-276AG",
        "meta_epoch": "2025-12-26T03:02:11.842080",
        "meta_mean_motion": 15.17459009,
        "meta_eccentricity": 0.0002484,
        "meta_inclination": 97.4384,
        "meta_ra_of_asc_node": 71.6453,
        "meta_arg_of_pericenter": 249.7526,
        "meta_mean_anomaly": 110.3441,
        "meta_ephemeris_type": 0,
        "meta_classification_type": "U",
        "meta_norad_cat_id": 66696,
        "meta_element_set_no": 999,
        "meta_rev_at_epoch": 415,
        "meta_bstar": 0.000451,
        "meta_mean_motion_dot": 8.967e-05,
        "meta_mean_motion_ddot": 0,
        "tle_line1": "1 66696U 25276AG  25360.12652595  .00008967  00000+0  45100-3 0  9998",
        "tle_line2": "2 66696  97.4384  71.6453 0002484 249.7526 110.3441 15.17459009  4154"
      },
      "geometry": {
        "type": "Point",
        "coordinates": [
          66.99548592627418,
          33.25551325602431
        ]
      }
    }
  ]
}